CCSDS_OMM_VERS = 2.0
CREATION_DATE  = 
ORIGINATOR     = 

OBJECT_NAME    = ARIANE 5 R/B
OBJECT_ID      = 2004-049H
CENTER_NAME    = EARTH
REF_FRAME      = TEME
TIME_SYSTEM    = UTC
MEAN_ELEMENT_THEORY = SGP/SGP4

EPOCH          = 2025-10-31T09:41:02.916672
MEAN_MOTION    = 14.84883241
ECCENTRICITY   = .0085733
INCLINATION    = 98.2508
RA_OF_ASC_NODE = 103.1774
ARG_OF_PERICENTER = 50.6229
MEAN_ANOMALY   = 310.2538

EPHEMERIS_TYPE = 0
CLASSIFICATION_TYPE = U
NORAD_CAT_ID   = 28499
ELEMENT_SET_NO = 999
REV_AT_EPOCH   = 12660
BSTAR          = .13982E-3
MEAN_MOTION_DOT = .1206E-4
MEAN_MOTION_DDOT = 0

CCSDS_OMM_VERS = 2.0
CREATION_DATE  = 
ORIGINATOR     = 

OBJECT_NAME    = CZ-2D R/B
OBJECT_ID      = 2005-024B
CENTER_NAME    = EARTH
REF_FRAME      = TEME
TIME_SYSTEM    = UTC
MEAN_ELEMENT_THEORY = SGP/SGP4

EPOCH          = 2025-10-31T13:10:03.777312
MEAN_MOTION    = 15.50393911
ECCENTRICITY   = .0007793
INCLINATION    = 97.3683
RA_OF_ASC_NODE = 310.9703
ARG_OF_PERICENTER = 122.1767
MEAN_ANOMALY   = 238.0242

EPHEMERIS_TYPE = 0
CLASSIFICATION_TYPE = U
NORAD_CAT_ID   = 28738
ELEMENT_SET_NO = 999
REV_AT_EPOCH   = 11971
BSTAR          = .58633E-3
MEAN_MOTION_DOT = .33353E-3
MEAN_MOTION_DDOT = 0

CCSDS_OMM_VERS = 2.0
CREATION_DATE  = 
ORIGINATOR     = 

OBJECT_NAME    = ALOS (DAICHI)
OBJECT_ID      = 2006-002A
CENTER_NAME    = EARTH
REF_FRAME      = TEME
TIME_SYSTEM    = UTC
MEAN_ELEMENT_THEORY = SGP/SGP4

EPOCH          = 2025-10-31T16:19:02.447616
MEAN_MOTION    = 14.69275297
ECCENTRICITY   = .000166
INCLINATION    = 98.1018
RA_OF_ASC_NODE = 256.4857
ARG_OF_PERICENTER = 54.1651
MEAN_ANOMALY   = 305.9708

EPHEMERIS_TYPE = 0
CLASSIFICATION_TYPE = U
NORAD_CAT_ID   = 28931
ELEMENT_SET_NO = 999
REV_AT_EPOCH   = 5453
BSTAR          = .4159E-3
MEAN_MOTION_DOT = .2404E-4
MEAN_MOTION_DDOT = 0

CCSDS_OMM_VERS = 2.0
CREATION_DATE  = 
ORIGINATOR     = 

OBJECT_NAME    = H-2A R/B
OBJECT_ID      = 2006-002B
CENTER_NAME    = EARTH
REF_FRAME      = TEME
TIME_SYSTEM    = UTC
MEAN_ELEMENT_THEORY = SGP/SGP4

EPOCH          = 2025-10-31T08:29:32.544096
MEAN_MOTION    = 15.13430222
ECCENTRICITY   = .0055021
INCLINATION    = 98.2287
RA_OF_ASC_NODE = 75.6899
ARG_OF_PERICENTER = 321.6142
MEAN_ANOMALY   = 38.1178

EPHEMERIS_TYPE = 0
CLASSIFICATION_TYPE = U
NORAD_CAT_ID   = 28932
ELEMENT_SET_NO = 999
REV_AT_EPOCH   = 7485
BSTAR          = .57081E-3
MEAN_MOTION_DOT = .10513E-3
MEAN_MOTION_DDOT = 0

CCSDS_OMM_VERS = 2.0
CREATION_DATE  = 
ORIGINATOR     = 

OBJECT_NAME    = RESURS-DK 1
OBJECT_ID      = 2006-021A
CENTER_NAME    = EARTH
REF_FRAME      = TEME
TIME_SYSTEM    = UTC
MEAN_ELEMENT_THEORY = SGP/SGP4

EPOCH          = 2025-10-31T11:45:23.090112
MEAN_MOTION    = 15.11814555
ECCENTRICITY   = .0007185
INCLINATION    = 69.9335
RA_OF_ASC_NODE = 210.9930
ARG_OF_PERICENTER = 293.4231
MEAN_ANOMALY   = 66.6178

EPHEMERIS_TYPE = 0
CLASSIFICATION_TYPE = U
NORAD_CAT_ID   = 29228
ELEMENT_SET_NO = 999
REV_AT_EPOCH   = 6799
BSTAR          = .23332E-3
MEAN_MOTION_DOT = .3891E-4
MEAN_MOTION_DDOT = 0

CCSDS_OMM_VERS = 2.0
CREATION_DATE  = 
ORIGINATOR     = 

OBJECT_NAME    = CZ-4B R/B
OBJECT_ID      = 2006-046C
CENTER_NAME    = EARTH
REF_FRAME      = TEME
TIME_SYSTEM    = UTC
MEAN_ELEMENT_THEORY = SGP/SGP4

EPOCH          = 2025-10-31T15:30:04.837248
MEAN_MOTION    = 15.15257520
ECCENTRICITY   = .0034313
INCLINATION    = 97.5809
RA_OF_ASC_NODE = 344.9011
ARG_OF_PERICENTER = 357.2645
MEAN_ANOMALY   = 2.8394

EPHEMERIS_TYPE = 0
CLASSIFICATION_TYPE = U
NORAD_CAT_ID   = 29507
ELEMENT_SET_NO = 999
REV_AT_EPOCH   = 4049
BSTAR          = .3707E-3
MEAN_MOTION_DOT = .7007E-4
MEAN_MOTION_DDOT = 0

CCSDS_OMM_VERS = 2.0
CREATION_DATE  = 
ORIGINATOR     = 

OBJECT_NAME    = CZ-2C R/B
OBJECT_ID      = 2007-010B
CENTER_NAME    = EARTH
REF_FRAME      = TEME
TIME_SYSTEM    = UTC
MEAN_ELEMENT_THEORY = SGP/SGP4

EPOCH          = 2025-10-31T14:06:27.871776
MEAN_MOTION    = 14.20184377
ECCENTRICITY   = .0058096
INCLINATION    = 98.3951
RA_OF_ASC_NODE = 59.3662
ARG_OF_PERICENTER = 310.3155
MEAN_ANOMALY   = 49.2954

EPHEMERIS_TYPE = 0
CLASSIFICATION_TYPE = U
NORAD_CAT_ID   = 31114
ELEMENT_SET_NO = 999
REV_AT_EPOCH   = 96139
BSTAR          = .10755E-3
MEAN_MOTION_DOT = .192E-5
MEAN_MOTION_DDOT = 0

CCSDS_OMM_VERS = 2.0
CREATION_DATE  = 
ORIGINATOR     = 

OBJECT_NAME    = COSMO-SKYMED 1
OBJECT_ID      = 2007-023A
CENTER_NAME    = EARTH
REF_FRAME      = TEME
TIME_SYSTEM    = UTC
MEAN_ELEMENT_THEORY = SGP/SGP4

EPOCH          = 2025-10-31T15:16:57.423936
MEAN_MOTION    = 14.95308472
ECCENTRICITY   = .0001026
INCLINATION    = 97.8862
RA_OF_ASC_NODE = 129.7708
ARG_OF_PERICENTER = 83.3379
MEAN_ANOMALY   = 276.7958

EPHEMERIS_TYPE = 0
CLASSIFICATION_TYPE = U
NORAD_CAT_ID   = 31598
ELEMENT_SET_NO = 999
REV_AT_EPOCH   = 99560
BSTAR          = .38406E-3
MEAN_MOTION_DOT = .4174E-4
MEAN_MOTION_DDOT = 0

CCSDS_OMM_VERS = 2.0
CREATION_DATE  = 
ORIGINATOR     = 

OBJECT_NAME    = COSMOS 2428
OBJECT_ID      = 2007-029A
CENTER_NAME    = EARTH
REF_FRAME      = TEME
TIME_SYSTEM    = UTC
MEAN_ELEMENT_THEORY = SGP/SGP4

EPOCH          = 2025-10-31T14:43:35.483232
MEAN_MOTION    = 14.12892889
ECCENTRICITY   = .0001752
INCLINATION    = 70.9364
RA_OF_ASC_NODE = 114.3202
ARG_OF_PERICENTER = 112.0616
MEAN_ANOMALY   = 248.0692

EPHEMERIS_TYPE = 0
CLASSIFICATION_TYPE = U
NORAD_CAT_ID   = 31792
ELEMENT_SET_NO = 999
REV_AT_EPOCH   = 94586
BSTAR          = -.84403E-4
MEAN_MOTION_DOT = -.205E-5
MEAN_MOTION_DDOT = 0

CCSDS_OMM_VERS = 2.0
CREATION_DATE  = 
ORIGINATOR     = 

OBJECT_NAME    = SL-16 R/B
OBJECT_ID      = 2007-029B
CENTER_NAME    = EARTH
REF_FRAME      = TEME
TIME_SYSTEM    = UTC
MEAN_ELEMENT_THEORY = SGP/SGP4

EPOCH          = 2025-10-31T16:20:49.937856
MEAN_MOTION    = 14.14803487
ECCENTRICITY   = .0002403
INCLINATION    = 70.9740
RA_OF_ASC_NODE = 83.5633
ARG_OF_PERICENTER = 260.4341
MEAN_ANOMALY   = 190.8810

EPHEMERIS_TYPE = 0
CLASSIFICATION_TYPE = U
NORAD_CAT_ID   = 31793
ELEMENT_SET_NO = 999
REV_AT_EPOCH   = 94712
BSTAR          = .11754E-5
MEAN_MOTION_DOT = -.46E-6
MEAN_MOTION_DDOT = 0

CCSDS_OMM_VERS = 2.0
CREATION_DATE  = 
ORIGINATOR     = 

OBJECT_NAME    = KORONAS-FOTON
OBJECT_ID      = 2009-003A
CENTER_NAME    = EARTH
REF_FRAME      = TEME
TIME_SYSTEM    = UTC
MEAN_ELEMENT_THEORY = SGP/SGP4

EPOCH          = 2025-10-31T08:07:10.744320
MEAN_MOTION    = 15.39801570
ECCENTRICITY   = .0010654
INCLINATION    = 82.4325
RA_OF_ASC_NODE = 49.9845
ARG_OF_PERICENTER = 260.9479
MEAN_ANOMALY   = 99.0561

EPHEMERIS_TYPE = 0
CLASSIFICATION_TYPE = U
NORAD_CAT_ID   = 33504
ELEMENT_SET_NO = 999
REV_AT_EPOCH   = 92581
BSTAR          = .43821E-3
MEAN_MOTION_DOT = .17448E-3
MEAN_MOTION_DDOT = 0

CCSDS_OMM_VERS = 2.0
CREATION_DATE  = 
ORIGINATOR     = 

OBJECT_NAME    = CZ-2C R/B
OBJECT_ID      = 2011-030B
CENTER_NAME    = EARTH
REF_FRAME      = TEME
TIME_SYSTEM    = UTC
MEAN_ELEMENT_THEORY = SGP/SGP4

EPOCH          = 2025-10-31T15:38:44.370816
MEAN_MOTION    = 14.80672923
ECCENTRICITY   = .0054451
INCLINATION    = 97.8337
RA_OF_ASC_NODE = 259.7138
ARG_OF_PERICENTER = 51.3587
MEAN_ANOMALY   = 120.9916

EPHEMERIS_TYPE = 0
CLASSIFICATION_TYPE = U
NORAD_CAT_ID   = 37731
ELEMENT_SET_NO = 999
REV_AT_EPOCH   = 77099
BSTAR          = .31426E-3
MEAN_MOTION_DOT = .2424E-4
MEAN_MOTION_DDOT = 0

