ARIANE 5 R/B            
1 28499U 04049H   25304.40350598  .00001206  00000+0  13982-3 0  9991
2 28499  98.2508 103.1774 0085733  50.6229 310.2538 14.84883241126609
CZ-2D R/B               
1 28738U 05024B   25304.54865483  .00033353  00000+0  58633-3 0  9990
2 28738  97.3683 310.9703 0007793 122.1767 238.0242 15.50393911119718
ALOS (DAICHI)           
1 28931U 06002A   25304.67988944  .00002404  00000+0  41590-3 0  9991
2 28931  98.1018 256.4857 0001660  54.1651 305.9708 14.69275297 54535
H-2A R/B                
1 28932U 06002B   25304.35384889  .00010513  00000+0  57081-3 0  9997
2 28932  98.2287  75.6899 0055021 321.6142  38.1178 15.13430222 74853
RESURS-DK 1             
1 29228U 06021A   25304.48985058  .00003891  00000+0  23332-3 0  9999
2 29228  69.9335 210.9930 0007185 293.4231  66.6178 15.11814555 67990
CZ-4B R/B               
1 29507U 06046C   25304.64588932  .00007007  00000+0  37070-3 0  9991
2 29507  97.5809 344.9011 0034313 357.2645   2.8394 15.15257520 40497
CZ-2C R/B               
1 31114U 07010B   25304.58782259  .00000192  00000+0  10755-3 0  9990
2 31114  98.3951  59.3662 0058096 310.3155  49.2954 14.20184377961392
COSMO-SKYMED 1          
1 31598U 07023A   25304.63677574  .00004174  00000+0  38406-3 0  9996
2 31598  97.8862 129.7708 0001026  83.3379 276.7958 14.95308472995600
COSMOS 2428             
1 31792U 07029A   25304.61360513 -.00000205  00000+0 -84403-4 0  9990
2 31792  70.9364 114.3202 0001752 112.0616 248.0692 14.12892889945863
SL-16 R/B               
1 31793U 07029B   25304.68113354 -.00000046  00000+0  11754-5 0  9999
2 31793  70.9740  83.5633 0002403 260.4341 190.8810 14.14803487947129
KORONAS-FOTON           
1 33504U 09003A   25304.33831880  .00017448  00000+0  43821-3 0  9999
2 33504  82.4325  49.9845 0010654 260.9479  99.0561 15.39801570925817
CZ-2C R/B               
1 37731U 11030B   25304.65190244  .00002424  00000+0  31426-3 0  9991
2 37731  97.8337 259.7138 0054451  51.3587 120.9916 14.80672923770995
